STARLINK-5755           
1 55600U 23020AH  26067.21131571  .00001324  00000+0  11301-3 0  9993
2 55600  43.0059 359.9807 0001061 282.3198  77.7525 15.02545506168844
QPS-SAR-8 (AMATERU-IV)  
1 60542U 24149CC  26068.70418071  .00008268  00000+0  61811-3 0  9990
2 60542  97.6699 148.7511 0003873  93.1500 267.0168 15.03026697 85328
